{
    "week": 296,
    "satellites": [
        {
            "Name": "COSMOS 2485 (747)",
            "Line1": "1 39155U 13019A   24342.84075165  .00000025  00000+0  00000+0 0  9993",
            "Line2": "2 39155  65.1233  92.3202 0023894 229.0052 130.7923  2.13104269 90427",
            "SatelliteNumber": "39155",
            "Classification": "U",
            "LaunchYear": "13",
            "LaunchNumber": "019",
            "PieceOfLaunch": "A",
            "EpochYear": "24",
            "EpochDay": 342.84075165,
            "FirstDerivativeMeanMotion": 2.5e-07,
            "SecondDerivativeMeanMotion": "00000+0",
            "BSTAR": "00000+0",
            "SetNumber": "999",
            "Inclination": 65.1233,
            "RAAN": 92.3202,
            "Eccentricity": 0.0023894,
            "ArgumentOfPerigee": 229.0052,
            "MeanAnomaly": 130.7923,
            "MeanMotion": 2.13104269,
            "RevolutionNumber": "9042"
        },
        {
            "Name": "COSMOS 2492 (754)",
            "Line1": "1 39620U 14012A   24343.26539209 -.00000023  00000+0  00000+0 0  9994",
            "Line2": "2 39620  65.5991 332.7659 0014641 311.7999  48.0936  2.13103062 83398",
            "SatelliteNumber": "39620",
            "Classification": "U",
            "LaunchYear": "14",
            "LaunchNumber": "012",
            "PieceOfLaunch": "A",
            "EpochYear": "24",
            "EpochDay": 343.26539209,
            "FirstDerivativeMeanMotion": -2.3e-07,
            "SecondDerivativeMeanMotion": "00000+0",
            "BSTAR": "00000+0",
            "SetNumber": "999",
            "Inclination": 65.5991,
            "RAAN": 332.7659,
            "Eccentricity": 0.0014641,
            "ArgumentOfPerigee": 311.7999,
            "MeanAnomaly": 48.0936,
            "MeanMotion": 2.13103062,
            "RevolutionNumber": "8339"
        },
        {
            "Name": "COSMOS 2500 (755)",
            "Line1": "1 40001U 14032A   24343.44246717 -.00000024  00000+0  00000+0 0  9991",
            "Line2": "2 40001  65.5358 332.5514 0008138 222.5810 137.3743  2.13105848 81618",
            "SatelliteNumber": "40001",
            "Classification": "U",
            "LaunchYear": "14",
            "LaunchNumber": "032",
            "PieceOfLaunch": "A",
            "EpochYear": "24",
            "EpochDay": 343.44246717,
            "FirstDerivativeMeanMotion": -2.4e-07,
            "SecondDerivativeMeanMotion": "00000+0",
            "BSTAR": "00000+0",
            "SetNumber": "999",
            "Inclination": 65.5358,
            "RAAN": 332.5514,
            "Eccentricity": 0.0008138,
            "ArgumentOfPerigee": 222.581,
            "MeanAnomaly": 137.3743,
            "MeanMotion": 2.13105848,
            "RevolutionNumber": "8161"
        },
        {
            "Name": "COSMOS 2501 (702K)",
            "Line1": "1 40315U 14075A   24343.22848173  .00000068  00000+0  00000+0 0  9993",
            "Line2": "2 40315  63.6161 209.6322 0019156 204.6350 155.3559  2.13101333 78009",
            "SatelliteNumber": "40315",
            "Classification": "U",
            "LaunchYear": "14",
            "LaunchNumber": "075",
            "PieceOfLaunch": "A",
            "EpochYear": "24",
            "EpochDay": 343.22848173,
            "FirstDerivativeMeanMotion": 6.8e-07,
            "SecondDerivativeMeanMotion": "00000+0",
            "BSTAR": "00000+0",
            "SetNumber": "999",
            "Inclination": 63.6161,
            "RAAN": 209.6322,
            "Eccentricity": 0.0019156,
            "ArgumentOfPerigee": 204.635,
            "MeanAnomaly": 155.3559,
            "MeanMotion": 2.13101333,
            "RevolutionNumber": "7800"
        },
        {
            "Name": "COSMOS 2514 (751)",
            "Line1": "1 41330U 16008A   24343.68065191 -.00000025  00000+0  00000+0 0  9994",
            "Line2": "2 41330  65.3291 332.0086 0012206 222.8374 137.0852  2.13102473 68788",
            "SatelliteNumber": "41330",
            "Classification": "U",
            "LaunchYear": "16",
            "LaunchNumber": "008",
            "PieceOfLaunch": "A",
            "EpochYear": "24",
            "EpochDay": 343.68065191,
            "FirstDerivativeMeanMotion": -2.5e-07,
            "SecondDerivativeMeanMotion": "00000+0",
            "BSTAR": "00000+0",
            "SetNumber": "999",
            "Inclination": 65.3291,
            "RAAN": 332.0086,
            "Eccentricity": 0.0012206,
            "ArgumentOfPerigee": 222.8374,
            "MeanAnomaly": 137.0852,
            "MeanMotion": 2.13102473,
            "RevolutionNumber": "6878"
        },
        {
            "Name": "COSMOS 2522 (752)",
            "Line1": "1 42939U 17055A   24343.05113937  .00000065  00000+0  00000+0 0  9999",
            "Line2": "2 42939  64.0775 210.8291 0006149 230.3585 129.6704  2.13101887 56121",
            "SatelliteNumber": "42939",
            "Classification": "U",
            "LaunchYear": "17",
            "LaunchNumber": "055",
            "PieceOfLaunch": "A",
            "EpochYear": "24",
            "EpochDay": 343.05113937,
            "FirstDerivativeMeanMotion": 6.5e-07,
            "SecondDerivativeMeanMotion": "00000+0",
            "BSTAR": "00000+0",
            "SetNumber": "999",
            "Inclination": 64.0775,
            "RAAN": 210.8291,
            "Eccentricity": 0.0006149,
            "ArgumentOfPerigee": 230.3585,
            "MeanAnomaly": 129.6704,
            "MeanMotion": 2.13101887,
            "RevolutionNumber": "5612"
        },
        {
            "Name": "COSMOS 2527 (756)",
            "Line1": "1 43508U 18053A   24343.47984498  .00000020  00000+0  00000+0 0  9996",
            "Line2": "2 43508  65.2830  92.4871 0008655 222.7846 137.1508  2.13102159 50433",
            "SatelliteNumber": "43508",
            "Classification": "U",
            "LaunchYear": "18",
            "LaunchNumber": "053",
            "PieceOfLaunch": "A",
            "EpochYear": "24",
            "EpochDay": 343.47984498,
            "FirstDerivativeMeanMotion": 2e-07,
            "SecondDerivativeMeanMotion": "00000+0",
            "BSTAR": "00000+0",
            "SetNumber": "999",
            "Inclination": 65.283,
            "RAAN": 92.4871,
            "Eccentricity": 0.0008655,
            "ArgumentOfPerigee": 222.7846,
            "MeanAnomaly": 137.1508,
            "MeanMotion": 2.13102159,
            "RevolutionNumber": "5043"
        },
        {
            "Name": "COSMOS 2529 (757)",
            "Line1": "1 43687U 18086A   24343.57852055  .00000067  00000+0  00000+0 0  9995",
            "Line2": "2 43687  64.2930 211.3707 0007271 260.5015  99.4991  2.13101922 47442",
            "SatelliteNumber": "43687",
            "Classification": "U",
            "LaunchYear": "18",
            "LaunchNumber": "086",
            "PieceOfLaunch": "A",
            "EpochYear": "24",
            "EpochDay": 343.57852055,
            "FirstDerivativeMeanMotion": 6.7e-07,
            "SecondDerivativeMeanMotion": "00000+0",
            "BSTAR": "00000+0",
            "SetNumber": "999",
            "Inclination": 64.293,
            "RAAN": 211.3707,
            "Eccentricity": 0.0007271,
            "ArgumentOfPerigee": 260.5015,
            "MeanAnomaly": 99.4991,
            "MeanMotion": 2.13101922,
            "RevolutionNumber": "4744"
        },
        {
            "Name": "COSMOS 2534 (758)",
            "Line1": "1 44299U 19030A   24342.85179086  .00000064  00000+0  00000+0 0  9998",
            "Line2": "2 44299  64.3662 211.3651 0009512 287.8774   8.8355  2.13101921 43068",
            "SatelliteNumber": "44299",
            "Classification": "U",
            "LaunchYear": "19",
            "LaunchNumber": "030",
            "PieceOfLaunch": "A",
            "EpochYear": "24",
            "EpochDay": 342.85179086,
            "FirstDerivativeMeanMotion": 6.4e-07,
            "SecondDerivativeMeanMotion": "00000+0",
            "BSTAR": "00000+0",
            "SetNumber": "999",
            "Inclination": 64.3662,
            "RAAN": 211.3651,
            "Eccentricity": 0.0009512,
            "ArgumentOfPerigee": 287.8774,
            "MeanAnomaly": 8.8355,
            "MeanMotion": 2.13101921,
            "RevolutionNumber": "4306"
        },
        {
            "Name": "COSMOS 2544 (759)",
            "Line1": "1 44850U 19088A   24343.42404816  .00000020  00000+0  00000+0 0  9992",
            "Line2": "2 44850  65.2699  92.3228 0013257 249.4326 110.4283  2.13101909 38875",
            "SatelliteNumber": "44850",
            "Classification": "U",
            "LaunchYear": "19",
            "LaunchNumber": "088",
            "PieceOfLaunch": "A",
            "EpochYear": "24",
            "EpochDay": 343.42404816,
            "FirstDerivativeMeanMotion": 2e-07,
            "SecondDerivativeMeanMotion": "00000+0",
            "BSTAR": "00000+0",
            "SetNumber": "999",
            "Inclination": 65.2699,
            "RAAN": 92.3228,
            "Eccentricity": 0.0013257,
            "ArgumentOfPerigee": 249.4326,
            "MeanAnomaly": 110.4283,
            "MeanMotion": 2.13101909,
            "RevolutionNumber": "3887"
        }
    ]
}